[{"OBJECT_NAME":"TEVEL2-5","OBJECT_ID":"2025-052E","EPOCH":"2026-03-09T23:11:54.246048","MEAN_MOTION":15.30817434,"ECCENTRICITY":0.00047002,"INCLINATION":97.4013,"RA_OF_ASC_NODE":325.3677,"ARG_OF_PERICENTER":95.3936,"MEAN_ANOMALY":264.7842,"EPHEMERIS_TYPE":0,"CLASSIFICATION_TYPE":"U","NORAD_CAT_ID":63214,"ELEMENT_SET_NO":999,"REV_AT_EPOCH":5491,"BSTAR":0.00071764727,"MEAN_MOTION_DOT":0.00021339,"MEAN_MOTION_DDOT":0},{"OBJECT_NAME":"STARLINK-34302","OBJECT_ID":"2025-176U","EPOCH":"2026-03-09T11:20:59.403264","MEAN_MOTION":15.30202628,"ECCENTRICITY":0.00012644,"INCLINATION":53.1595,"RA_OF_ASC_NODE":153.9872,"ARG_OF_PERICENTER":134.6336,"MEAN_ANOMALY":225.4768,"EPHEMERIS_TYPE":0,"CLASSIFICATION_TYPE":"U","NORAD_CAT_ID":65216,"ELEMENT_SET_NO":999,"REV_AT_EPOCH":3308,"BSTAR":0.00072557664,"MEAN_MOTION_DOT":0.00021193,"MEAN_MOTION_DDOT":0}]
